{"type": "FeatureCollection", "features": [ {"type": "Feature", "properties": {"norad_id": 40664, "name": "SKY MEXICO-1", "group": "intelsat", "lat": 0.028077980746829045, "lon": 109.49804084366069, "alt_km": 35797.31645924725, "timestamp": "2025-12-04T07:39:35.838220+00:00", "meta": {"OBJECT_NAME": "SKY MEXICO-1", "OBJECT_ID": "2015-026B", "EPOCH": "2025-12-03T13:22:52.871232", "MEAN_MOTION": 1.00270473, "ECCENTRICITY": 0.00027742, "INCLINATION": 0.0171, "RA_OF_ASC_NODE": 337.602, "ARG_OF_PERICENTER": 288.9303, "MEAN_ANOMALY": 288.0745, "EPHEMERIS_TYPE": 0, "CLASSIFICATION_TYPE": "U", "NORAD_CAT_ID": 40664, "ELEMENT_SET_NO": 999, "REV_AT_EPOCH": 3849, "BSTAR": 0, "MEAN_MOTION_DOT": -2.16e-06, "MEAN_MOTION_DDOT": 0}, "tle": {"line1": "1 40664U 15026B   25337.55755638 -.00000216  00000+0  00000+0 0  9996", "line2": "2 40664   0.0171 337.6020 0002774 288.9303 288.0745  1.00270473 38497"}}, "geometry": {"type": "Point", "coordinates": [109.49804084366069, 0.028077980746829045]}}, {"type": "Feature", "properties": {"norad_id": 40874, "name": "INTELSAT 34 (IS-34)", "group": "intelsat", "lat": -0.00014617783482965006, "lon": 132.76513753290106, "alt_km": 35784.97017138418, "timestamp": "2025-12-04T07:39:35.838230+00:00", "meta": {"OBJECT_NAME": "INTELSAT 34 (IS-34)", "OBJECT_ID": "2015-039A", "EPOCH": "2025-12-03T21:13:12.575712", "MEAN_MOTION": 1.00270047, "ECCENTRICITY": 5.075e-05, "INCLINATION": 0.0115, "RA_OF_ASC_NODE": 306.0047, "ARG_OF_PERICENTER": 225.7354, "MEAN_ANOMALY": 164.028, "EPHEMERIS_TYPE": 0, "CLASSIFICATION_TYPE": "U", "NORAD_CAT_ID": 40874, "ELEMENT_SET_NO": 999, "REV_AT_EPOCH": 3766, "BSTAR": 0, "MEAN_MOTION_DOT": -2.68e-06, "MEAN_MOTION_DDOT": 0}, "tle": {"line1": "1 40874U 15039A   25337.88417333 -.00000268  00000+0  00000+0 0  9993", "line2": "2 40874   0.0115 306.0047 0000507 225.7354 164.0280  1.00270047 37666"}}, "geometry": {"type": "Point", "coordinates": [132.76513753290106, -0.00014617783482965006]}}, {"type": "Feature", "properties": {"norad_id": 41581, "name": "INTELSAT 31 (IS-31)", "group": "intelsat", "lat": 0.011411914292370115, "lon": 93.19543454996611, "alt_km": 35791.62946620701, "timestamp": "2025-12-04T07:39:35.838241+00:00", "meta": {"OBJECT_NAME": "INTELSAT 31 (IS-31)", "OBJECT_ID": "2016-035A", "EPOCH": "2025-12-03T13:18:15.813216", "MEAN_MOTION": 1.0027005, "ECCENTRICITY": 0.00020986, "INCLINATION": 0.0165, "RA_OF_ASC_NODE": 271.6332, "ARG_OF_PERICENTER": 305.8436, "MEAN_ANOMALY": 319.6781, "EPHEMERIS_TYPE": 0, "CLASSIFICATION_TYPE": "U", "NORAD_CAT_ID": 41581, "ELEMENT_SET_NO": 999, "REV_AT_EPOCH": 3472, "BSTAR": 0, "MEAN_MOTION_DOT": -1.33e-06, "MEAN_MOTION_DDOT": 0}, "tle": {"line1": "1 41581U 16035A   25337.55434969 -.00000133  00000+0  00000+0 0  9995", "line2": "2 41581   0.0165 271.6332 0002098 305.8436 319.6781  1.00270050 34721"}}, "geometry": {"type": "Point", "coordinates": [93.19543454996611, 0.011411914292370115]}}, {"type": "Feature", "properties": {"norad_id": 41747, "name": "INTELSAT 36 (IS-36)", "group": "intelsat", "lat": -0.03292904579671268, "lon": -103.2437190882171, "alt_km": 35783.7507332697, "timestamp": "2025-12-04T07:39:35.838251+00:00", "meta": {"OBJECT_NAME": "INTELSAT 36 (IS-36)", "OBJECT_ID": "2016-053A", "EPOCH": "2025-12-03T20:09:58.164192", "MEAN_MOTION": 1.00268515, "ECCENTRICITY": 0.00015172, "INCLINATION": 0.0123, "RA_OF_ASC_NODE": 0.9905, "ARG_OF_PERICENTER": 315.4282, "MEAN_ANOMALY": 127.5011, "EPHEMERIS_TYPE": 0, "CLASSIFICATION_TYPE": "U", "NORAD_CAT_ID": 41747, "ELEMENT_SET_NO": 999, "REV_AT_EPOCH": 3399, "BSTAR": 0, "MEAN_MOTION_DOT": -7e-08, "MEAN_MOTION_DDOT": 0}, "tle": {"line1": "1 41747U 16053A   25337.84025653 -.00000007  00000+0  00000+0 0  9997", "line2": "2 41747   0.0123   0.9905 0001517 315.4282 127.5011  1.00268515 33992"}}, "geometry": {"type": "Point", "coordinates": [-103.2437190882171, -0.03292904579671268]}}, {"type": "Feature", "properties": {"norad_id": 41945, "name": "INTELSAT 32E (IS-32E)", "group": "intelsat", "lat": 0.017112859968291625, "lon": 145.09506505904292, "alt_km": 35787.79177107306, "timestamp": "2025-12-04T07:39:35.838262+00:00", "meta": {"OBJECT_NAME": "INTELSAT 32E (IS-32E)", "OBJECT_ID": "2017-007B", "EPOCH": "2025-12-03T16:58:20.260416", "MEAN_MOTION": 1.00269353, "ECCENTRICITY": 2.437e-05, "INCLINATION": 0.0313, "RA_OF_ASC_NODE": 71.605, "ARG_OF_PERICENTER": 272.0907, "MEAN_ANOMALY": 300.5079, "EPHEMERIS_TYPE": 0, "CLASSIFICATION_TYPE": "U", "NORAD_CAT_ID": 41945, "ELEMENT_SET_NO": 999, "REV_AT_EPOCH": 3226, "BSTAR": 0, "MEAN_MOTION_DOT": -2.51e-06, "MEAN_MOTION_DDOT": 0}, "tle": {"line1": "1 41945U 17007B   25337.70717894 -.00000251  00000+0  00000+0 0  9998", "line2": "2 41945   0.0313  71.6050 0000243 272.0907 300.5079  1.00269353 32263"}}, "geometry": {"type": "Point", "coordinates": [145.09506505904292, 0.017112859968291625]}}, {"type": "Feature", "properties": {"norad_id": 42818, "name": "INTELSAT 35E (IS-35E)", "group": "intelsat", "lat": -0.0065495243436240426, "lon": 153.76506243875573, "alt_km": 35788.87730031425, "timestamp": "2025-12-04T07:39:35.838272+00:00", "meta": {"OBJECT_NAME": "INTELSAT 35E (IS-35E)", "OBJECT_ID": "2017-041A", "EPOCH": "2025-12-03T17:00:57.508416", "MEAN_MOTION": 1.00270769, "ECCENTRICITY": 0.00024271, "INCLINATION": 0.0092, "RA_OF_ASC_NODE": 324.1753, "ARG_OF_PERICENTER": 293.4784, "MEAN_ANOMALY": 35.9019, "EPHEMERIS_TYPE": 0, "CLASSIFICATION_TYPE": "U", "NORAD_CAT_ID": 42818, "ELEMENT_SET_NO": 999, "REV_AT_EPOCH": 3085, "BSTAR": 0, "MEAN_MOTION_DOT": -2.2e-06, "MEAN_MOTION_DDOT": 0}, "tle": {"line1": "1 42818U 17041A   25337.70899894 -.00000220  00000+0  00000+0 0  9993", "line2": "2 42818   0.0092 324.1753 0002427 293.4784  35.9019  1.00270769 30858"}}, "geometry": {"type": "Point", "coordinates": [153.76506243875573, -0.0065495243436240426]}}, {"type": "Feature", "properties": {"norad_id": 42950, "name": "INTELSAT 37E (IS-37E)", "group": "intelsat", "lat": -0.021796765587268594, "lon": 170.23884818836748, "alt_km": 35783.13260800321, "timestamp": "2025-12-04T07:39:35.838282+00:00", "meta": {"OBJECT_NAME": "INTELSAT 37E (IS-37E)", "OBJECT_ID": "2017-059A", "EPOCH": "2025-12-03T19:04:38.697312", "MEAN_MOTION": 1.00270782, "ECCENTRICITY": 0.00034558, "INCLINATION": 0.0167, "RA_OF_ASC_NODE": 318.1373, "ARG_OF_PERICENTER": 289.2489, "MEAN_ANOMALY": 93.6607, "EPHEMERIS_TYPE": 0, "CLASSIFICATION_TYPE": "U", "NORAD_CAT_ID": 42950, "ELEMENT_SET_NO": 999, "REV_AT_EPOCH": 3010, "BSTAR": 0, "MEAN_MOTION_DOT": -1.23e-06, "MEAN_MOTION_DDOT": 0}, "tle": {"line1": "1 42950U 17059A   25337.79489233 -.00000123  00000+0  00000+0 0  9992", "line2": "2 42950   0.0167 318.1373 0003455 289.2489  93.6607  1.00270782 30103"}}, "geometry": {"type": "Point", "coordinates": [170.23884818836748, -0.021796765587268594]}}, {"type": "Feature", "properties": {"norad_id": 43632, "name": "AZERSPACE 2 (IS-38)", "group": "intelsat", "lat": -0.0400910725497516, "lon": -126.62341043148464, "alt_km": 35779.38828845513, "timestamp": "2025-12-04T07:39:35.838293+00:00", "meta": {"OBJECT_NAME": "AZERSPACE 2 (IS-38)", "OBJECT_ID": "2018-074A", "EPOCH": "2025-12-03T17:23:40.331904", "MEAN_MOTION": 1.0027174, "ECCENTRICITY": 0.00017416, "INCLINATION": 0.0176, "RA_OF_ASC_NODE": 347.6047, "ARG_OF_PERICENTER": 271.7152, "MEAN_ANOMALY": 119.5202, "EPHEMERIS_TYPE": 0, "CLASSIFICATION_TYPE": "U", "NORAD_CAT_ID": 43632, "ELEMENT_SET_NO": 999, "REV_AT_EPOCH": 2648, "BSTAR": 0, "MEAN_MOTION_DOT": 1.54e-06, "MEAN_MOTION_DDOT": 0}, "tle": {"line1": "1 43632U 18074A   25337.72477236  .00000154  00000+0  00000+0 0  9994", "line2": "2 43632   0.0176 347.6047 0001741 271.7152 119.5202  1.00271740 26485"}}, "geometry": {"type": "Point", "coordinates": [-126.62341043148464, -0.0400910725497516]}}, {"type": "Feature", "properties": {"norad_id": 43633, "name": "HORIZONS-3E", "group": "intelsat", "lat": 0.016896583080075443, "lon": -2.705047396755933, "alt_km": 35785.21179576963, "timestamp": "2025-12-04T07:39:35.838303+00:00", "meta": {"OBJECT_NAME": "HORIZONS-3E", "OBJECT_ID": "2018-074B", "EPOCH": "2025-12-02T09:32:38.562720", "MEAN_MOTION": 1.00268601, "ECCENTRICITY": 0.00010808, "INCLINATION": 0.0303, "RA_OF_ASC_NODE": 208.778, "ARG_OF_PERICENTER": 80.6678, "MEAN_ANOMALY": 94.2479, "EPHEMERIS_TYPE": 0, "CLASSIFICATION_TYPE": "U", "NORAD_CAT_ID": 43633, "ELEMENT_SET_NO": 999, "REV_AT_EPOCH": 2636, "BSTAR": 0, "MEAN_MOTION_DOT": -1e-07, "MEAN_MOTION_DDOT": 0}, "tle": {"line1": "1 43633U 18074B   25336.39766855 -.00000010  00000+0  00000+0 0  9997", "line2": "2 43633   0.0303 208.7780 0001080  80.6678  94.2479  1.00268601 26369"}}, "geometry": {"type": "Point", "coordinates": [-2.705047396755933, 0.016896583080075443]}}, {"type": "Feature", "properties": {"norad_id": 44333, "name": "AT&T T-16", "group": "intelsat", "lat": 0.023202350921141444, "lon": 87.39700509045373, "alt_km": 35786.572174442794, "timestamp": "2025-12-04T07:39:35.838314+00:00", "meta": {"OBJECT_NAME": "AT&T T-16", "OBJECT_ID": "2019-034A", "EPOCH": "2025-12-03T13:16:30.980640", "MEAN_MOTION": 1.00268492, "ECCENTRICITY": 4.555e-05, "INCLINATION": 0.0321, "RA_OF_ASC_NODE": 73.2547, "ARG_OF_PERICENTER": 90.5993, "MEAN_ANOMALY": 7.0538, "EPHEMERIS_TYPE": 0, "CLASSIFICATION_TYPE": "U", "NORAD_CAT_ID": 44333, "ELEMENT_SET_NO": 999, "REV_AT_EPOCH": 2367, "BSTAR": 0, "MEAN_MOTION_DOT": -9.7e-07, "MEAN_MOTION_DDOT": 0}, "tle": {"line1": "1 44333U 19034A   25337.55313635 -.00000097  00000+0  00000+0 0  9990", "line2": "2 44333   0.0321  73.2547 0000455  90.5993   7.0538  1.00268492 23675"}}, "geometry": {"type": "Point", "coordinates": [87.39700509045373, 0.023202350921141444]}}]}